line1,line2,classification,launch_year,launch_number,launch_piece,epoch_year,epoch_day,mean_motion_dot,mean_motion_ddot,bstar,ephemeris_type,element_number,satellite_number,inclination,ra_of_asc_node,eccentricity,arg_of_perigee,mean_anomaly,mean_motion,rev_at_epoch,datetime,x,y,z,cartesian_cords,NORAD_CAT_ID,OBJECT_TYPE,SATNAME,SITE,Operator/Owner,Users,Purpose,anom_inclination,anom_ra_of_asc_node,anom_eccentricity,anom_arg_of_perigee,anom_mean_anomaly,anom_mean_motion,anom_count
1 00876U 64053A   21349.82692988 -.00000035  00000-0  17475-4 0  9997,2 00876  65.0594 136.3685 0142072 194.1770 165.5327 14.63826653 47845,U,64,053,A,21,349.82692988,-3.5e-07,0.0,0.0,0,999,876,65.0594,136.3685,0.0142072,194.177,165.5327,14.63826653,4784,2021-12-15 19:50:46.741632,-5156.720981594188,4964.660888213883,10.771513454788808,[-5156.72098159  4964.66088821    10.77151345],876,PAYLOAD,COSMOS 44,TTMTR,0,0,0,0.0,0.0,0.0,0.0,0.0,0.0,0.0
1 00876U 64053A   21349.48533320 -.00000047  00000-0  15528-4 0  9993,2 00876  65.0594 137.3748 0142117 194.3049 165.4011 14.63826538 47792,U,64,053,A,21,349.4853332,-4.7e-07,0.0,0.0,0,999,876,65.0594,137.3748,0.0142117,194.3049,165.4011,14.63826538,4779,2021-12-15 11:38:52.788480,-5243.098831141785,4873.313112805432,10.95245219700021,[-5243.09883114  4873.31311281    10.9524522 ],876,PAYLOAD,COSMOS 44,TTMTR,0,0,0,0.0,0.0,0.0,0.0,0.0,0.0,0.0
1 00876U 64053A   21348.87045912 -.00000047  00000-0  15544-4 0  9998,2 00876  65.0593 139.1862 0142185 194.5334 165.1661 14.63826402 47701,U,64,053,A,21,348.87045912,-4.7e-07,0.0,0.0,0,999,876,65.0593,139.1862,0.0142185,194.5334,165.1661,14.63826402,4770,2021-12-14 20:53:27.667968,-5394.484234735002,4705.105105534668,11.277412391249864,[-5394.48423474  4705.10510553    11.27741239],876,PAYLOAD,COSMOS 44,TTMTR,0,0,0,0.0,0.0,0.0,0.0,0.0,0.0,0.0
1 00876U 64053A   21348.52886236 -.00000045  00000-0  15833-4 0  9991,2 00876  65.0593 140.1925 0142229 194.6573 165.0386 14.63826376 47655,U,64,053,A,21,348.52886236,-4.5e-07,0.0,0.0,0,999,876,65.0593,140.1925,0.0142229,194.6573,165.0386,14.63826376,4765,2021-12-14 12:41:33.707904,-5476.265177816993,4609.622730295328,11.44725393619202,[-5476.26517782  4609.6227303     11.44725394],876,PAYLOAD,COSMOS 44,TTMTR,0,0,0,0.0,0.0,0.0,0.0,0.0,0.0,0.0
1   876U 64053A   21347.84566883 -.00000046  00000-0  15645-4 0  9990,2   876  65.0592 142.2051 0142305 194.9161 164.7724 14.63826229 48074,U,64,053,A,21,347.84566883,-4.6e-07,0.0,0.0,0,999,876,65.0592,142.2051,0.0142305,194.9161,164.7724,14.63826229,4807,2021-12-13 20:17:45.786912,-5634.723800201446,4414.412615346985,11.784063831142532,[-5634.7238002   4414.41261535    11.78406383],876,PAYLOAD,COSMOS 44,TTMTR,0,0,0,0.0,0.0,0.0,0.0,0.0,0.0,0.0
1 00876U 64053A   21347.50407204 -.00000056  00000-0  14105-4 0  9995,2 00876  65.0591 143.2115 0142351 195.0442 164.6406 14.63826144 47509,U,64,053,A,21,347.50407204,-5.6e-07,0.0,0.0,0,999,876,65.0591,143.2115,0.0142351,195.0442,164.6406,14.63826144,4750,2021-12-13 12:05:51.824256,-5711.368283598885,4314.744880227584,11.945864584469735,[-5711.3682836   4314.74488023    11.94586458],876,PAYLOAD,COSMOS 44,TTMTR,0,0,0,0.0,0.0,0.0,0.0,0.0,0.0,0.0
1 00876U 64053A   21346.82087841 -.00000057  00000-0  13973-4 0  9993,2 00876  65.0590 145.2242 0142428 195.3036 164.3737 14.63826020 47404,U,64,053,A,21,346.82087841,-5.7e-07,0.0,0.0,0,999,876,65.059,145.2242,0.0142428,195.3036,164.3737,14.6382602,4740,2021-12-12 19:42:03.894624,-5859.326099324035,4111.454237843102,12.251933239345268,[-5859.32609932  4111.45423784    12.25193324],876,PAYLOAD,COSMOS 44,TTMTR,0,0,0,0.0,0.0,0.0,0.0,0.0,0.0,0.0
1   876U 64053A   21346.54760088 -.00000060  00000-0  13461-4 0  9999,2   876  65.0590 146.0292 0142463 195.4077 164.2666 14.63826004 47887,U,64,053,A,21,346.54760088,-6e-07,0.0,0.0,0,999,876,65.059,146.0292,0.0142463,195.4077,164.2666,14.63826004,4788,2021-12-12 13:08:32.716032,-5916.490745349708,4028.712802003504,12.372717887171655,[-5916.49074535  4028.712802      12.37271789],876,PAYLOAD,COSMOS 44,TTMTR,0,0,0,0.0,0.0,0.0,0.0,0.0,0.0,0.0
1 00876U 64053A   21345.72776844 -.00000061  00000-0  13263-4 0  9996,2 00876  65.0589 148.4444 0142560 195.7178 163.9477 14.63825871 47240,U,64,053,A,21,345.72776844,-6.1e-07,0.0,0.0,0,999,876,65.0589,148.4444,0.014256,195.7178,163.9477,14.63825871,4724,2021-12-11 17:27:59.193216,-6080.941802468856,3775.757115863924,12.733081674294269,[-6080.94180247  3775.75711586    12.73308167],876,PAYLOAD,COSMOS 44,TTMTR,0,0,0,0.0,0.0,0.0,0.0,0.0,0.0,0.0
1 00876U 64053A   21345.52281028 -.00000063  00000-0  12851-4 0  9993,2 00876  65.0588 149.0482 0142585 195.7946 163.8687 14.63825865 47210,U,64,053,A,21,345.52281028,-6.3e-07,0.0,0.0,0,999,876,65.0588,149.0482,0.0142585,195.7946,163.8687,14.63825865,4721,2021-12-11 12:32:50.808192,-6120.37654649353,3711.4540682785187,12.817570981972066,[-6120.37654649  3711.45406828    12.81757098],876,PAYLOAD,COSMOS 44,TTMTR,0,0,0,0.0,0.0,0.0,0.0,0.0,0.0,0.0
1   876U 64053A   21344.90793587 -.00000073  00000-0  11263-4 0  9999,2   876  65.0588 150.8596 0142652 196.0297 163.6269 14.63825732 47648,U,64,053,A,21,344.90793587,-7.3e-07,0.0,0.0,0,999,876,65.0588,150.8596,0.0142652,196.0297,163.6269,14.63825732,4764,2021-12-10 21:47:25.659168,-6234.576776616892,3516.0983167193513,13.063242255771193,[-6234.57677662  3516.09831672    13.06324226],876,PAYLOAD,COSMOS 44,TTMTR,0,0,0,0.0,0.0,0.0,0.0,0.0,0.0,0.0
1 00876U 64053A   21343.88314513 -.00000081  00000-0  99716-5 0  9992,2 00876  65.0587 153.8787 0142774 196.4199 163.2254 14.63825574 46971,U,64,053,A,21,343.88314513,-8.1e-07,0.0,0.0,0,999,876,65.0587,153.8787,0.0142774,196.4199,163.2254,14.63825574,4697,2021-12-09 21:11:43.739232,-6411.010548096598,3182.7999000138366,13.427064975647388,[-6411.0105481   3182.79990001    13.42706498],876,PAYLOAD,COSMOS 44,TTMTR,0,0,0,0.0,0.0,0.0,0.0,0.0,0.0,0.0
1   876U 64053A   21343.19995128 -.00000080  00000-0  10174-4 0  9992,2   876  65.0587 155.8914 0142849 196.6762 162.9618 14.63825508 47390,U,64,053,A,21,343.19995128,-8e-07,0.0,0.0,0,999,876,65.0587,155.8914,0.0142849,196.6762,162.9618,14.63825508,4739,2021-12-09 04:47:55.790592,-6518.767158072348,2955.6370796158994,13.660025346473132,[-6518.76715807  2955.63707962    13.66002535],876,PAYLOAD,COSMOS 44,TTMTR,0,0,0,0.0,0.0,0.0,0.0,0.0,0.0,0.0
1 00876U 64053A   21342.92667372 -.00000084  00000-0  94145-5 0  9994,2 00876  65.0587 156.6965 0142884 196.7804 162.8547 14.63825445 46830,U,64,053,A,21,342.92667372,-8.4e-07,0.0,0.0,0,999,876,65.0587,156.6965,0.0142884,196.7804,162.8547,14.63825445,4683,2021-12-08 22:14:24.609408,-6559.628609506169,2863.7310214423674,13.75750452054845,[-6559.62860951  2863.73102144    13.75750452],876,PAYLOAD,COSMOS 44,TTMTR,0,0,0,0.0,0.0,0.0,0.0,0.0,0.0,0.0
1 00876U 64053A   21342.58507667 -.00000078  00000-0  10409-4 0  9999,2 00876  65.0587 157.7028 0142924 196.9073 162.7241 14.63825484 46784,U,64,053,A,21,342.58507667,-7.8e-07,0.0,0.0,0,999,876,65.0587,157.7028,0.0142924,196.9073,162.7241,14.63825484,4678,2021-12-08 14:02:30.624288,-6608.873781001006,2748.072945685942,13.855578407678637,[-6608.873781    2748.07294569    13.85557841],876,PAYLOAD,COSMOS 44,TTMTR,0,0,0,0.0,0.0,0.0,0.0,0.0,0.0,0.0
1 00876U 64053A   21341.90188283 -.00000081  00000-0  10040-4 0  9998,2 00876  65.0587 159.7155 0142995 197.1637 162.4604 14.63825329 46681,U,64,053,A,21,341.90188283,-8.1e-07,0.0,0.0,0,999,876,65.0587,159.7155,0.0142995,197.1637,162.4604,14.63825329,4668,2021-12-07 21:38:42.676512,-6701.231587334635,2514.232436848471,14.053599700138612,[-6701.23158733  2514.23243685    14.0535997 ],876,PAYLOAD,COSMOS 44,TTMTR,0,0,0,0.0,0.0,0.0,0.0,0.0,0.0,0.0
1 00876U 64053A   21341.21868887 -.00000072  00000-0  11424-4 0  9994,2 00876  65.0588 161.7282 0143071 197.4227 162.1939 14.63825262 46583,U,64,053,A,21,341.21868887,-7.2e-07,0.0,0.0,0,999,876,65.0588,161.7282,0.0143071,197.4227,162.1939,14.63825262,4658,2021-12-07 05:14:54.718368,-6785.31626251275,2277.3007205764598,14.221055472037639,[-6785.31626251  2277.30072058    14.22105547],876,PAYLOAD,COSMOS 44,TTMTR,0,0,0,0.0,0.0,0.0,0.0,0.0,0.0,0.0
1   876U 64053A   21340.80877251 -.00000070  00000-0  11759-4 0  9992,2   876  65.0588 162.9359 0143126 197.5774 162.0348 14.63825172 47045,U,64,053,A,21,340.80877251,-7e-07,0.0,0.0,0,999,876,65.0588,162.9359,0.0143126,197.5774,162.0348,14.63825172,4704,2021-12-06 19:24:37.944864,-6831.76402185265,2133.763545699156,14.325356093128079,[-6831.76402185  2133.7635457     14.32535609],876,PAYLOAD,COSMOS 44,TTMTR,0,0,0,0.0,0.0,0.0,0.0,0.0,0.0,0.0
1 00876U 64053A   21340.26221730 -.00000063  00000-0  12848-4 0  9999,2 00876  65.0588 164.5460 0143179 197.7838 161.8225 14.63825105 46447,U,64,053,A,21,340.2622173,-6.3e-07,0.0,0.0,0,999,876,65.0588,164.546,0.0143179,197.7838,161.8225,14.63825105,4644,2021-12-06 06:17:35.574720,-6888.946708835476,1940.9409335156554,14.442791527663388,[-6888.94670884  1940.94093352    14.44279153],876,PAYLOAD,COSMOS 44,TTMTR,0,0,0,0.0,0.0,0.0,0.0,0.0,0.0,0.0
1 00876U 64053A   21339.92062029 -.00000059  00000-0  13588-4 0  9991,2 00876  65.0588 165.5523 0143223 197.9119 161.6907 14.63825036 46394,U,64,053,A,21,339.92062029,-5.9e-07,0.0,0.0,0,999,876,65.0588,165.5523,0.0143223,197.9119,161.6907,14.63825036,4639,2021-12-05 22:05:41.593056,-6921.932119684409,1819.644095249449,14.510578931706425,[-6921.93211968  1819.64409525    14.51057893],876,PAYLOAD,COSMOS 44,TTMTR,0,0,0,0.0,0.0,0.0,0.0,0.0,0.0,0.0
1   876U 64053A   21339.57902328 -.00000059  00000-0  13644-4 0  9990,2   876  65.0588 166.5587 0143261 198.0392 161.5598 14.63824973 46868,U,64,053,A,21,339.57902328,-5.9e-07,0.0,0.0,0,999,876,65.0588,166.5587,0.0143261,198.0392,161.5598,14.63824973,4686,2021-12-05 13:53:47.611392,-6952.78162111503,1697.7715538031916,14.579777642844714,[-6952.78162112  1697.7715538     14.57977764],876,PAYLOAD,COSMOS 44,TTMTR,0,0,0,0.0,0.0,0.0,0.0,0.0,0.0,0.0
